TWILIGHT AH             
1 67394U 26004AH  26039.23145437  .00005819  00000+0  28681-3 0  9990
2 67394  97.4474  40.1656 0010670  70.5033 289.7352 15.18273298  4196
TWILIGHT AJ             
1 67395U 26004AJ  26039.18859188  .00003053  00000+0  34010-3 0  9991
2 67395  97.8017  39.8961 0005177 177.6962 182.4279 14.87808018  4099
HAWK-13B                
1 67396U 26004AK  26039.30488371  .00006298  00000+0  31403-3 0  9995
2 67396  97.4512  40.2345 0008777  70.4135 289.8045 15.17856700  4200
CARBSAR                 
1 67397U 26004AL  26039.24106553  .00009803  00000+0  48644-3 0  9998
2 67397  97.4533  40.1750 0007880  75.2384 284.9722 15.17882302  4199
TWILIGHT AM             
1 67398U 26004AM  26039.30350902  .00011004  00000+0  54387-3 0  9992
2 67398  97.4570  40.2576 0008774  78.7035 281.5185 15.17983159  4202
TWILIGHT AN             
1 67399U 26004AN  26039.30067692  .00006246  00000+0  30900-3 0  9991
2 67399  97.4558  40.2571 0009510  78.7661 281.4641 15.18129714  4204
CONNECTA IOT-13         
1 67400U 26004AP  26039.22977232  .00000044  00000+0  54412-5 0  9991
2 67400  97.4556  40.1982 0010966  79.1812 281.0656 15.18135084  4197
CONNECTA IOT-14         
1 67401U 26004AQ  26039.29325064  .00010933  00000+0  53166-3 0  9990
2 67401  97.4502  40.2450 0011616  73.5869 286.6641 15.18525679  4203
CONNECTA IOT-15         
1 67402U 26004AR  26039.19069478  .00008643  00000+0  44470-3 0  9997
2 67402  97.4562  40.0997 0004666  64.5958 295.5758 15.16666066  4178
SHIJIAN-29B (SJ-29B)    
1 67403U 25315C   26038.99539584 -.00000063  00000+0  00000+0 0  9995
2 67403   3.0705  98.4902 0002487 313.3077 157.7481  1.00272340   398
STARLINK-36484          
1 67404U 26005A   26039.05610567  .00062836  00000+0  14988-2 0  9990
2 67404  43.0002  48.0076 0001735 237.9553 122.1135 15.40707422  4132
STARLINK-36452          
1 67405U 26005B   26039.25002315 -.02012600  00000+0 -43879-1 0  9997
2 67405  43.0004  46.4787 0001259 289.7474 238.6126 15.46841907  5401
