CCSDS_OMM_VERS = 2.0
CREATION_DATE  = 
ORIGINATOR     = 

OBJECT_NAME    = TWILIGHT AH
OBJECT_ID      = 2026-004AH
CENTER_NAME    = EARTH
REF_FRAME      = TEME
TIME_SYSTEM    = UTC
MEAN_ELEMENT_THEORY = SGP/SGP4

EPOCH          = 2026-02-08T05:33:17.657568
MEAN_MOTION    = 15.18273298
ECCENTRICITY   = .00106706
INCLINATION    = 97.4474
RA_OF_ASC_NODE = 40.1656
ARG_OF_PERICENTER = 70.5033
MEAN_ANOMALY   = 289.7352

EPHEMERIS_TYPE = 0
CLASSIFICATION_TYPE = U
NORAD_CAT_ID   = 67394
ELEMENT_SET_NO = 999
REV_AT_EPOCH   = 419
BSTAR          = .28681122E-3
MEAN_MOTION_DOT = .5819E-4
MEAN_MOTION_DDOT = 0

CCSDS_OMM_VERS = 2.0
CREATION_DATE  = 
ORIGINATOR     = 

OBJECT_NAME    = TWILIGHT AJ
OBJECT_ID      = 2026-004AJ
CENTER_NAME    = EARTH
REF_FRAME      = TEME
TIME_SYSTEM    = UTC
MEAN_ELEMENT_THEORY = SGP/SGP4

EPOCH          = 2026-02-08T04:31:34.338432
MEAN_MOTION    = 14.87808018
ECCENTRICITY   = .00051776
INCLINATION    = 97.8017
RA_OF_ASC_NODE = 39.8961
ARG_OF_PERICENTER = 177.6962
MEAN_ANOMALY   = 182.4279

EPHEMERIS_TYPE = 0
CLASSIFICATION_TYPE = U
NORAD_CAT_ID   = 67395
ELEMENT_SET_NO = 999
REV_AT_EPOCH   = 409
BSTAR          = .34009687E-3
MEAN_MOTION_DOT = .3053E-4
MEAN_MOTION_DDOT = 0

CCSDS_OMM_VERS = 2.0
CREATION_DATE  = 
ORIGINATOR     = 

OBJECT_NAME    = HAWK-13B
OBJECT_ID      = 2026-004AK
CENTER_NAME    = EARTH
REF_FRAME      = TEME
TIME_SYSTEM    = UTC
MEAN_ELEMENT_THEORY = SGP/SGP4

EPOCH          = 2026-02-08T07:19:01.952544
MEAN_MOTION    = 15.17856700
ECCENTRICITY   = .00087779
INCLINATION    = 97.4512
RA_OF_ASC_NODE = 40.2345
ARG_OF_PERICENTER = 70.4135
MEAN_ANOMALY   = 289.8045

EPHEMERIS_TYPE = 0
CLASSIFICATION_TYPE = U
NORAD_CAT_ID   = 67396
ELEMENT_SET_NO = 999
REV_AT_EPOCH   = 420
BSTAR          = .31403139E-3
MEAN_MOTION_DOT = .6298E-4
MEAN_MOTION_DDOT = 0

CCSDS_OMM_VERS = 2.0
CREATION_DATE  = 
ORIGINATOR     = 

OBJECT_NAME    = CARBSAR
OBJECT_ID      = 2026-004AL
CENTER_NAME    = EARTH
REF_FRAME      = TEME
TIME_SYSTEM    = UTC
MEAN_ELEMENT_THEORY = SGP/SGP4

EPOCH          = 2026-02-08T05:47:08.061792
MEAN_MOTION    = 15.17882302
ECCENTRICITY   = .00078802
INCLINATION    = 97.4533
RA_OF_ASC_NODE = 40.1750
ARG_OF_PERICENTER = 75.2384
MEAN_ANOMALY   = 284.9722

EPHEMERIS_TYPE = 0
CLASSIFICATION_TYPE = U
NORAD_CAT_ID   = 67397
ELEMENT_SET_NO = 999
REV_AT_EPOCH   = 419
BSTAR          = .48644392E-3
MEAN_MOTION_DOT = .9803E-4
MEAN_MOTION_DDOT = 0

CCSDS_OMM_VERS = 2.0
CREATION_DATE  = 
ORIGINATOR     = 

OBJECT_NAME    = TWILIGHT AM
OBJECT_ID      = 2026-004AM
CENTER_NAME    = EARTH
REF_FRAME      = TEME
TIME_SYSTEM    = UTC
MEAN_ELEMENT_THEORY = SGP/SGP4

EPOCH          = 2026-02-08T07:17:03.179328
MEAN_MOTION    = 15.17983159
ECCENTRICITY   = .00087748
INCLINATION    = 97.4570
RA_OF_ASC_NODE = 40.2576
ARG_OF_PERICENTER = 78.7035
MEAN_ANOMALY   = 281.5185

EPHEMERIS_TYPE = 0
CLASSIFICATION_TYPE = U
NORAD_CAT_ID   = 67398
ELEMENT_SET_NO = 999
REV_AT_EPOCH   = 420
BSTAR          = .54386656E-3
MEAN_MOTION_DOT = .11004E-3
MEAN_MOTION_DDOT = 0

CCSDS_OMM_VERS = 2.0
CREATION_DATE  = 
ORIGINATOR     = 

OBJECT_NAME    = TWILIGHT AN
OBJECT_ID      = 2026-004AN
CENTER_NAME    = EARTH
REF_FRAME      = TEME
TIME_SYSTEM    = UTC
MEAN_ELEMENT_THEORY = SGP/SGP4

EPOCH          = 2026-02-08T07:12:58.485888
MEAN_MOTION    = 15.18129714
ECCENTRICITY   = .00095109
INCLINATION    = 97.4558
RA_OF_ASC_NODE = 40.2571
ARG_OF_PERICENTER = 78.7661
MEAN_ANOMALY   = 281.4641

EPHEMERIS_TYPE = 0
CLASSIFICATION_TYPE = U
NORAD_CAT_ID   = 67399
ELEMENT_SET_NO = 999
REV_AT_EPOCH   = 420
BSTAR          = .30899877E-3
MEAN_MOTION_DOT = .6246E-4
MEAN_MOTION_DDOT = 0

CCSDS_OMM_VERS = 2.0
CREATION_DATE  = 
ORIGINATOR     = 

OBJECT_NAME    = CONNECTA IOT-13
OBJECT_ID      = 2026-004AP
CENTER_NAME    = EARTH
REF_FRAME      = TEME
TIME_SYSTEM    = UTC
MEAN_ELEMENT_THEORY = SGP/SGP4

EPOCH          = 2026-02-08T05:30:52.328448
MEAN_MOTION    = 15.18135084
ECCENTRICITY   = .00109669
INCLINATION    = 97.4556
RA_OF_ASC_NODE = 40.1982
ARG_OF_PERICENTER = 79.1812
MEAN_ANOMALY   = 281.0656

EPHEMERIS_TYPE = 0
CLASSIFICATION_TYPE = U
NORAD_CAT_ID   = 67400
ELEMENT_SET_NO = 999
REV_AT_EPOCH   = 419
BSTAR          = .5441173E-5
MEAN_MOTION_DOT = .44E-6
MEAN_MOTION_DDOT = 0

CCSDS_OMM_VERS = 2.0
CREATION_DATE  = 
ORIGINATOR     = 

OBJECT_NAME    = CONNECTA IOT-14
OBJECT_ID      = 2026-004AQ
CENTER_NAME    = EARTH
REF_FRAME      = TEME
TIME_SYSTEM    = UTC
MEAN_ELEMENT_THEORY = SGP/SGP4

EPOCH          = 2026-02-08T07:02:16.855296
MEAN_MOTION    = 15.18525679
ECCENTRICITY   = .00116164
INCLINATION    = 97.4502
RA_OF_ASC_NODE = 40.2450
ARG_OF_PERICENTER = 73.5869
MEAN_ANOMALY   = 286.6641

EPHEMERIS_TYPE = 0
CLASSIFICATION_TYPE = U
NORAD_CAT_ID   = 67401
ELEMENT_SET_NO = 999
REV_AT_EPOCH   = 420
BSTAR          = .53166068E-3
MEAN_MOTION_DOT = .10933E-3
MEAN_MOTION_DDOT = 0

CCSDS_OMM_VERS = 2.0
CREATION_DATE  = 
ORIGINATOR     = 

OBJECT_NAME    = CONNECTA IOT-15
OBJECT_ID      = 2026-004AR
CENTER_NAME    = EARTH
REF_FRAME      = TEME
TIME_SYSTEM    = UTC
MEAN_ELEMENT_THEORY = SGP/SGP4

EPOCH          = 2026-02-08T04:34:36.028992
MEAN_MOTION    = 15.16666066
ECCENTRICITY   = .00046666
INCLINATION    = 97.4562
RA_OF_ASC_NODE = 40.0997
ARG_OF_PERICENTER = 64.5958
MEAN_ANOMALY   = 295.5758

EPHEMERIS_TYPE = 0
CLASSIFICATION_TYPE = U
NORAD_CAT_ID   = 67402
ELEMENT_SET_NO = 999
REV_AT_EPOCH   = 417
BSTAR          = .44469995E-3
MEAN_MOTION_DOT = .8643E-4
MEAN_MOTION_DDOT = 0

CCSDS_OMM_VERS = 2.0
CREATION_DATE  = 
ORIGINATOR     = 

OBJECT_NAME    = SHIJIAN-29B (SJ-29B)
OBJECT_ID      = 2025-315C
CENTER_NAME    = EARTH
REF_FRAME      = TEME
TIME_SYSTEM    = UTC
MEAN_ELEMENT_THEORY = SGP/SGP4

EPOCH          = 2026-02-07T23:53:22.200576
MEAN_MOTION    = 1.00272340
ECCENTRICITY   = .00024872
INCLINATION    = 3.0705
RA_OF_ASC_NODE = 98.4902
ARG_OF_PERICENTER = 313.3077
MEAN_ANOMALY   = 157.7481

EPHEMERIS_TYPE = 0
CLASSIFICATION_TYPE = U
NORAD_CAT_ID   = 67403
ELEMENT_SET_NO = 999
REV_AT_EPOCH   = 39
BSTAR          = 0
MEAN_MOTION_DOT = -.63E-6
MEAN_MOTION_DDOT = 0

CCSDS_OMM_VERS = 2.0
CREATION_DATE  = 
ORIGINATOR     = 

OBJECT_NAME    = STARLINK-36484
OBJECT_ID      = 2026-005A
CENTER_NAME    = EARTH
REF_FRAME      = TEME
TIME_SYSTEM    = UTC
MEAN_ELEMENT_THEORY = SGP/SGP4

EPOCH          = 2026-02-08T01:20:47.529888
MEAN_MOTION    = 15.40707422
ECCENTRICITY   = .00017357
INCLINATION    = 43.0002
RA_OF_ASC_NODE = 48.0076
ARG_OF_PERICENTER = 237.9553
MEAN_ANOMALY   = 122.1135

EPHEMERIS_TYPE = 0
CLASSIFICATION_TYPE = U
NORAD_CAT_ID   = 67404
ELEMENT_SET_NO = 999
REV_AT_EPOCH   = 413
BSTAR          = .14987501E-2
MEAN_MOTION_DOT = .62836E-3
MEAN_MOTION_DDOT = 0

CCSDS_OMM_VERS = 2.0
CREATION_DATE  = 
ORIGINATOR     = 

OBJECT_NAME    = STARLINK-36452
OBJECT_ID      = 2026-005B
CENTER_NAME    = EARTH
REF_FRAME      = TEME
TIME_SYSTEM    = UTC
MEAN_ELEMENT_THEORY = SGP/SGP4

EPOCH          = 2026-02-08T06:00:02.000160
MEAN_MOTION    = 15.46841907
ECCENTRICITY   = .0001259
INCLINATION    = 43.0004
RA_OF_ASC_NODE = 46.4787
ARG_OF_PERICENTER = 289.7474
MEAN_ANOMALY   = 238.6126

EPHEMERIS_TYPE = 0
CLASSIFICATION_TYPE = U
NORAD_CAT_ID   = 67405
ELEMENT_SET_NO = 999
REV_AT_EPOCH   = 540
BSTAR          = -.43878783E-1
MEAN_MOTION_DOT = -.20126E-1
MEAN_MOTION_DDOT = 0

